{
  "type": "FeatureCollection",
  "features": [
    {
      "type": "Feature",
      "properties": {
        "norad_id": 34540,
        "name": "IRIDIUM 33 DEB",
        "group": "iridium-33-debris",
        "lat": 35.52654984577643,
        "lon": 126.76057704960489,
        "alt_km": 632.665246570924,
        "timestamp": "2025-12-08T19:31:49.192788+00:00",
        "meta_object_name": "IRIDIUM 33 DEB",
        "meta_object_id": "1997-051JH",
        "meta_epoch": "2025-12-08T04:16:26.408352",
        "meta_mean_motion": 14.75168935,
        "meta_eccentricity": 0.00156096,
        "meta_inclination": 86.3105,
        "meta_ra_of_asc_node": 309.6917,
        "meta_arg_of_pericenter": 175.4701,
        "meta_mean_anomaly": 195.2544,
        "meta_ephemeris_type": 0,
        "meta_classification_type": "U",
        "meta_norad_cat_id": 34540,
        "meta_element_set_no": 999,
        "meta_rev_at_epoch": 88954,
        "meta_bstar": 0.0021326634,
        "meta_mean_motion_dot": 0.00014466,
        "meta_mean_motion_ddot": 0,
        "tle_line1": "1 34540U 97051JH  25342.17808343  .00014466  00000+0  21327-2 0  9995",
        "tle_line2": "2 34540  86.3105 309.6917 0015609 175.4701 195.2544 14.75168935889545"
      },
      "geometry": {
        "type": "Point",
        "coordinates": [
          126.76057704960489,
          35.52654984577643
        ]
      }
    },
    {
      "type": "Feature",
      "properties": {
        "norad_id": 34648,
        "name": "IRIDIUM 33 DEB",
        "group": "iridium-33-debris",
        "lat": 66.68356827080964,
        "lon": 95.11535862609682,
        "alt_km": 975.3863903641804,
        "timestamp": "2025-12-08T19:31:49.192797+00:00",
        "meta_object_name": "IRIDIUM 33 DEB",
        "meta_object_id": "1997-051JZ",
        "meta_epoch": "2025-12-06T19:20:47.044320",
        "meta_mean_motion": 14.11197938,
        "meta_eccentricity": 0.01849632,
        "meta_inclination": 86.3922,
        "meta_ra_of_asc_node": 284.3423,
        "meta_arg_of_pericenter": 317.3129,
        "meta_mean_anomaly": 41.3805,
        "meta_ephemeris_type": 0,
        "meta_classification_type": "U",
        "meta_norad_cat_id": 34648,
        "meta_element_set_no": 999,
        "meta_rev_at_epoch": 84877,
        "meta_bstar": 0.013223828,
        "meta_mean_motion_dot": 0.00028092,
        "meta_mean_motion_ddot": 0,
        "tle_line1": "1 34648U 97051JZ  25340.80610005  .00028092  00000+0  13224-1 0  9994",
        "tle_line2": "2 34648  86.3922 284.3423 0184963 317.3129  41.3805 14.11197938848779"
      },
      "geometry": {
        "type": "Point",
        "coordinates": [
          95.11535862609682,
          66.68356827080964
        ]
      }
    },
    {
      "type": "Feature",
      "properties": {
        "norad_id": 34651,
        "name": "IRIDIUM 33 DEB",
        "group": "iridium-33-debris",
        "lat": -31.23321130007119,
        "lon": 139.98800048732355,
        "alt_km": 849.8987511414543,
        "timestamp": "2025-12-08T19:31:49.192807+00:00",
        "meta_object_name": "IRIDIUM 33 DEB",
        "meta_object_id": "1997-051KC",
        "meta_epoch": "2025-12-06T22:11:54.879936",
        "meta_mean_motion": 14.25664536,
        "meta_eccentricity": 0.01419317,
        "meta_inclination": 86.2838,
        "meta_ra_of_asc_node": 143.05,
        "meta_arg_of_pericenter": 222.4049,
        "meta_mean_anomaly": 136.6106,
        "meta_ephemeris_type": 0,
        "meta_classification_type": "U",
        "meta_norad_cat_id": 34651,
        "meta_element_set_no": 999,
        "meta_rev_at_epoch": 85813,
        "meta_bstar": 0.004978077,
        "meta_mean_motion_dot": 0.00013145,
        "meta_mean_motion_ddot": 0,
        "tle_line1": "1 34651U 97051KC  25340.92494074  .00013145  00000+0  49781-2 0  9998",
        "tle_line2": "2 34651  86.2838 143.0500 0141931 222.4049 136.6106 14.25664536858131"
      },
      "geometry": {
        "type": "Point",
        "coordinates": [
          139.98800048732355,
          -31.23321130007119
        ]
      }
    },
    {
      "type": "Feature",
      "properties": {
        "norad_id": 34652,
        "name": "IRIDIUM 33 DEB",
        "group": "iridium-33-debris",
        "lat": -46.27520219524259,
        "lon": 165.59577547702725,
        "alt_km": 692.3440806957797,
        "timestamp": "2025-12-08T19:31:49.192816+00:00",
        "meta_object_name": "IRIDIUM 33 DEB",
        "meta_object_id": "1997-051KD",
        "meta_epoch": "2025-12-08T07:03:48.948192",
        "meta_mean_motion": 14.6199171,
        "meta_eccentricity": 0.0026359,
        "meta_inclination": 86.3314,
        "meta_ra_of_asc_node": 341.9806,
        "meta_arg_of_pericenter": 314.3635,
        "meta_mean_anomaly": 60.0719,
        "meta_ephemeris_type": 0,
        "meta_classification_type": "U",
        "meta_norad_cat_id": 34652,
        "meta_element_set_no": 999,
        "meta_rev_at_epoch": 88419,
        "meta_bstar": 0.0013387352,
        "meta_mean_motion_dot": 6.764e-05,
        "meta_mean_motion_ddot": 0,
        "tle_line1": "1 34652U 97051KD  25342.29431653  .00006764  00000+0  13387-2 0  9997",
        "tle_line2": "2 34652  86.3314 341.9806 0026359 314.3635  60.0719 14.61991710884190"
      },
      "geometry": {
        "type": "Point",
        "coordinates": [
          165.59577547702725,
          -46.27520219524259
        ]
      }
    },
    {
      "type": "Feature",
      "properties": {
        "norad_id": 34690,
        "name": "IRIDIUM 33 DEB",
        "group": "iridium-33-debris",
        "lat": -7.653274559178511,
        "lon": -140.81477983343424,
        "alt_km": 719.8688580443168,
        "timestamp": "2025-12-08T19:31:49.192826+00:00",
        "meta_object_name": "IRIDIUM 33 DEB",
        "meta_object_id": "1997-051KM",
        "meta_epoch": "2025-12-08T03:56:46.392576",
        "meta_mean_motion": 14.55069262,
        "meta_eccentricity": 0.00113589,
        "meta_inclination": 86.3783,
        "meta_ra_of_asc_node": 38.9797,
        "meta_arg_of_pericenter": 43.1397,
        "meta_mean_anomaly": 345.1287,
        "meta_ephemeris_type": 0,
        "meta_classification_type": "U",
        "meta_norad_cat_id": 34690,
        "meta_element_set_no": 999,
        "meta_rev_at_epoch": 88028,
        "meta_bstar": 0.00064037492,
        "meta_mean_motion_dot": 2.783e-05,
        "meta_mean_motion_ddot": 0,
        "tle_line1": "1 34690U 97051KM  25342.16442584  .00002783  00000+0  64037-3 0  9996",
        "tle_line2": "2 34690  86.3783  38.9797 0011358  43.1397 345.1287 14.55069262880283"
      },
      "geometry": {
        "type": "Point",
        "coordinates": [
          -140.81477983343424,
          -7.653274559178511
        ]
      }
    },
    {
      "type": "Feature",
      "properties": {
        "norad_id": 34693,
        "name": "IRIDIUM 33 DEB",
        "group": "iridium-33-debris",
        "lat": -61.948169996040924,
        "lon": -61.19030120569915,
        "alt_km": 498.63275314566636,
        "timestamp": "2025-12-08T19:31:49.192835+00:00",
        "meta_object_name": "IRIDIUM 33 DEB",
        "meta_object_id": "1997-051KQ",
        "meta_epoch": "2025-12-07T22:02:58.454304",
        "meta_mean_motion": 15.26250885,
        "meta_eccentricity": 0.00150657,
        "meta_inclination": 86.3063,
        "meta_ra_of_asc_node": 306.2164,
        "meta_arg_of_pericenter": 60.7141,
        "meta_mean_anomaly": 2.5462,
        "meta_ephemeris_type": 0,
        "meta_classification_type": "U",
        "meta_norad_cat_id": 34693,
        "meta_element_set_no": 999,
        "meta_rev_at_epoch": 88841,
        "meta_bstar": 0.005329848,
        "meta_mean_motion_dot": 0.00140844,
        "meta_mean_motion_ddot": 0,
        "tle_line1": "1 34693U 97051KQ  25341.91873211  .00140844  00000+0  53298-2 0  9993",
        "tle_line2": "2 34693  86.3063 306.2164 0015065  60.7141   2.5462 15.26250885888411"
      },
      "geometry": {
        "type": "Point",
        "coordinates": [
          -61.19030120569915,
          -61.948169996040924
        ]
      }
    },
    {
      "type": "Feature",
      "properties": {
        "norad_id": 34696,
        "name": "IRIDIUM 33 DEB",
        "group": "iridium-33-debris",
        "lat": -7.111660579490312,
        "lon": -150.1737077090504,
        "alt_km": 629.6852118720826,
        "timestamp": "2025-12-08T19:31:49.192844+00:00",
        "meta_object_name": "IRIDIUM 33 DEB",
        "meta_object_id": "1997-051KT",
        "meta_epoch": "2025-12-08T04:13:33.659328",
        "meta_mean_motion": 14.64721515,
        "meta_eccentricity": 0.00743145,
        "meta_inclination": 86.1852,
        "meta_ra_of_asc_node": 29.6457,
        "meta_arg_of_pericenter": 182.9168,
        "meta_mean_anomaly": 243.6432,
        "meta_ephemeris_type": 0,
        "meta_classification_type": "U",
        "meta_norad_cat_id": 34696,
        "meta_element_set_no": 999,
        "meta_rev_at_epoch": 86606,
        "meta_bstar": 0.0061120134,
        "meta_mean_motion_dot": 0.00034033,
        "meta_mean_motion_ddot": 0,
        "tle_line1": "1 34696U 97051KT  25342.17608402  .00034033  00000+0  61120-2 0  9998",
        "tle_line2": "2 34696  86.1852  29.6457 0074314 182.9168 243.6432 14.64721515866063"
      },
      "geometry": {
        "type": "Point",
        "coordinates": [
          -150.1737077090504,
          -7.111660579490312
        ]
      }
    }
  ]
}